STARLINK-35625          
1 66140U 25237AC  25317.58335648 -.00347857  00000+0 -64876-2 0  9994
2 66140  53.1597 225.0653 0000487  95.3188  44.4849 15.49489679  4790
STARLINK-35603          
1 66141U 25237AD  25317.58335648 -.00105198  00000+0 -19068-2 0  9998
2 66141  53.1597 225.0575 0000869  81.9062  61.7491 15.49341612  4799
TJS-20                  
1 66142U 25238A   25317.53805222  .00000013  00000+0  00000+0 0  9996
2 66142   5.9531 300.4536 0001549 117.6281 251.0052  1.00273628   172
CZ-5 R/B                
1 66143U 25238B   25316.05645911  .00054368 -58670-6  15859-2 0  9997
2 66143  16.3176 266.8740 7592279 176.2192 198.0254  1.93958162   393
SPAINSAT NG II          
1 66144U 25239A   25315.24029741 -.00000300  00000+0  00000+0 0  9999
2 66144  21.6664 244.3422 7969635 184.0309 158.8894  1.07619643   223
STARLINK-35318          
1 66146U 25240A   25317.58335648 -.00015334  00000+0 -26835-3 0  9990
2 66146  53.1599 244.2549 0001451  78.9903 217.4670 15.49290889  4268
STARLINK-33948          
1 66147U 25240B   25317.58335648 -.00039843  00000+0 -71203-3 0  9991
2 66147  53.1599 244.2508 0001361  86.3721 212.0056 15.49305338  4260
STARLINK-35081          
1 66148U 25240C   25317.58335648  .00139541  00000+0  23764-2 0  9994
2 66148  53.1599 244.2457 0000879 108.8476 191.9831 15.50432753  4219
STARLINK-35601          
1 66149U 25240D   25317.58335648  .00134781  00000+0  23998-2 0  9995
2 66149  53.1600 244.2423 0000831  77.3541 224.8747 15.49190024  4219
STARLINK-35605          
1 66150U 25240E   25317.58335648  .00133792  00000+0  23827-2 0  9999
2 66150  53.1600 244.2387 0000884  73.0162 231.1305 15.49188618  4217
STARLINK-35540          
1 66151U 25240F   25317.58335648  .00181600  00000+0  32137-2 0  9995
2 66151  53.1599 244.2343 0000799  81.8848 224.1926 15.49168205  4211
STARLINK-35455          
1 66152U 25240G   25317.58335648  .00045522  00000+0  82345-3 0  9995
2 66152  53.1599 244.2306 0001320  82.5720 225.3996 15.49250765  4212
