CCSDS_OMM_VERS = 2.0
CREATION_DATE  = 
ORIGINATOR     = 

OBJECT_NAME    = STARLINK-35625
OBJECT_ID      = 2025-237AC
CENTER_NAME    = EARTH
REF_FRAME      = TEME
TIME_SYSTEM    = UTC
MEAN_ELEMENT_THEORY = SGP/SGP4

EPOCH          = 2025-11-13T14:00:01.999872
MEAN_MOTION    = 15.49489679
ECCENTRICITY   = .00004876
INCLINATION    = 53.1597
RA_OF_ASC_NODE = 225.0653
ARG_OF_PERICENTER = 95.3188
MEAN_ANOMALY   = 44.4849

EPHEMERIS_TYPE = 0
CLASSIFICATION_TYPE = U
NORAD_CAT_ID   = 66140
ELEMENT_SET_NO = 999
REV_AT_EPOCH   = 479
BSTAR          = -.64876455E-2
MEAN_MOTION_DOT = -.347857E-2
MEAN_MOTION_DDOT = 0

CCSDS_OMM_VERS = 2.0
CREATION_DATE  = 
ORIGINATOR     = 

OBJECT_NAME    = STARLINK-35603
OBJECT_ID      = 2025-237AD
CENTER_NAME    = EARTH
REF_FRAME      = TEME
TIME_SYSTEM    = UTC
MEAN_ELEMENT_THEORY = SGP/SGP4

EPOCH          = 2025-11-13T14:00:01.999872
MEAN_MOTION    = 15.49341612
ECCENTRICITY   = .00008692
INCLINATION    = 53.1597
RA_OF_ASC_NODE = 225.0575
ARG_OF_PERICENTER = 81.9062
MEAN_ANOMALY   = 61.7491

EPHEMERIS_TYPE = 0
CLASSIFICATION_TYPE = U
NORAD_CAT_ID   = 66141
ELEMENT_SET_NO = 999
REV_AT_EPOCH   = 479
BSTAR          = -.19067656E-2
MEAN_MOTION_DOT = -.105198E-2
MEAN_MOTION_DDOT = 0

CCSDS_OMM_VERS = 2.0
CREATION_DATE  = 
ORIGINATOR     = 

OBJECT_NAME    = TJS-20
OBJECT_ID      = 2025-238A
CENTER_NAME    = EARTH
REF_FRAME      = TEME
TIME_SYSTEM    = UTC
MEAN_ELEMENT_THEORY = SGP/SGP4

EPOCH          = 2025-11-13T12:54:47.711808
MEAN_MOTION    = 1.00273628
ECCENTRICITY   = .00015491
INCLINATION    = 5.9531
RA_OF_ASC_NODE = 300.4536
ARG_OF_PERICENTER = 117.6281
MEAN_ANOMALY   = 251.0052

EPHEMERIS_TYPE = 0
CLASSIFICATION_TYPE = U
NORAD_CAT_ID   = 66142
ELEMENT_SET_NO = 999
REV_AT_EPOCH   = 17
BSTAR          = 0
MEAN_MOTION_DOT = .13E-6
MEAN_MOTION_DDOT = 0

CCSDS_OMM_VERS = 2.0
CREATION_DATE  = 
ORIGINATOR     = 

OBJECT_NAME    = CZ-5 R/B
OBJECT_ID      = 2025-238B
CENTER_NAME    = EARTH
REF_FRAME      = TEME
TIME_SYSTEM    = UTC
MEAN_ELEMENT_THEORY = SGP/SGP4

EPOCH          = 2025-11-12T01:21:18.067104
MEAN_MOTION    = 1.93958162
ECCENTRICITY   = .75922796
INCLINATION    = 16.3176
RA_OF_ASC_NODE = 266.8740
ARG_OF_PERICENTER = 176.2192
MEAN_ANOMALY   = 198.0254

EPHEMERIS_TYPE = 0
CLASSIFICATION_TYPE = U
NORAD_CAT_ID   = 66143
ELEMENT_SET_NO = 999
REV_AT_EPOCH   = 39
BSTAR          = .15859055E-2
MEAN_MOTION_DOT = .54368E-3
MEAN_MOTION_DDOT = -.586699E-6

CCSDS_OMM_VERS = 2.0
CREATION_DATE  = 
ORIGINATOR     = 

OBJECT_NAME    = SPAINSAT NG II
OBJECT_ID      = 2025-239A
CENTER_NAME    = EARTH
REF_FRAME      = TEME
TIME_SYSTEM    = UTC
MEAN_ELEMENT_THEORY = SGP/SGP4

EPOCH          = 2025-11-11T05:46:01.696224
MEAN_MOTION    = 1.07619643
ECCENTRICITY   = .79696358
INCLINATION    = 21.6664
RA_OF_ASC_NODE = 244.3422
ARG_OF_PERICENTER = 184.0309
MEAN_ANOMALY   = 158.8894

EPHEMERIS_TYPE = 0
CLASSIFICATION_TYPE = U
NORAD_CAT_ID   = 66144
ELEMENT_SET_NO = 999
REV_AT_EPOCH   = 22
BSTAR          = 0
MEAN_MOTION_DOT = -.3E-5
MEAN_MOTION_DDOT = 0

CCSDS_OMM_VERS = 2.0
CREATION_DATE  = 
ORIGINATOR     = 

OBJECT_NAME    = STARLINK-35318
OBJECT_ID      = 2025-240A
CENTER_NAME    = EARTH
REF_FRAME      = TEME
TIME_SYSTEM    = UTC
MEAN_ELEMENT_THEORY = SGP/SGP4

EPOCH          = 2025-11-13T14:00:01.999872
MEAN_MOTION    = 15.49290889
ECCENTRICITY   = .00014513
INCLINATION    = 53.1599
RA_OF_ASC_NODE = 244.2549
ARG_OF_PERICENTER = 78.9903
MEAN_ANOMALY   = 217.4670

EPHEMERIS_TYPE = 0
CLASSIFICATION_TYPE = U
NORAD_CAT_ID   = 66146
ELEMENT_SET_NO = 999
REV_AT_EPOCH   = 426
BSTAR          = -.26834628E-3
MEAN_MOTION_DOT = -.15334E-3
MEAN_MOTION_DDOT = 0

CCSDS_OMM_VERS = 2.0
CREATION_DATE  = 
ORIGINATOR     = 

OBJECT_NAME    = STARLINK-33948
OBJECT_ID      = 2025-240B
CENTER_NAME    = EARTH
REF_FRAME      = TEME
TIME_SYSTEM    = UTC
MEAN_ELEMENT_THEORY = SGP/SGP4

EPOCH          = 2025-11-13T14:00:01.999872
MEAN_MOTION    = 15.49305338
ECCENTRICITY   = .00013617
INCLINATION    = 53.1599
RA_OF_ASC_NODE = 244.2508
ARG_OF_PERICENTER = 86.3721
MEAN_ANOMALY   = 212.0056

EPHEMERIS_TYPE = 0
CLASSIFICATION_TYPE = U
NORAD_CAT_ID   = 66147
ELEMENT_SET_NO = 999
REV_AT_EPOCH   = 426
BSTAR          = -.71203422E-3
MEAN_MOTION_DOT = -.39843E-3
MEAN_MOTION_DDOT = 0

CCSDS_OMM_VERS = 2.0
CREATION_DATE  = 
ORIGINATOR     = 

OBJECT_NAME    = STARLINK-35081
OBJECT_ID      = 2025-240C
CENTER_NAME    = EARTH
REF_FRAME      = TEME
TIME_SYSTEM    = UTC
MEAN_ELEMENT_THEORY = SGP/SGP4

EPOCH          = 2025-11-13T14:00:01.999872
MEAN_MOTION    = 15.50432753
ECCENTRICITY   = .00008796
INCLINATION    = 53.1599
RA_OF_ASC_NODE = 244.2457
ARG_OF_PERICENTER = 108.8476
MEAN_ANOMALY   = 191.9831

EPHEMERIS_TYPE = 0
CLASSIFICATION_TYPE = U
NORAD_CAT_ID   = 66148
ELEMENT_SET_NO = 999
REV_AT_EPOCH   = 421
BSTAR          = .2376383E-2
MEAN_MOTION_DOT = .139541E-2
MEAN_MOTION_DDOT = 0

CCSDS_OMM_VERS = 2.0
CREATION_DATE  = 
ORIGINATOR     = 

OBJECT_NAME    = STARLINK-35601
OBJECT_ID      = 2025-240D
CENTER_NAME    = EARTH
REF_FRAME      = TEME
TIME_SYSTEM    = UTC
MEAN_ELEMENT_THEORY = SGP/SGP4

EPOCH          = 2025-11-13T14:00:01.999872
MEAN_MOTION    = 15.49190024
ECCENTRICITY   = .00008319
INCLINATION    = 53.1600
RA_OF_ASC_NODE = 244.2423
ARG_OF_PERICENTER = 77.3541
MEAN_ANOMALY   = 224.8747

EPHEMERIS_TYPE = 0
CLASSIFICATION_TYPE = U
NORAD_CAT_ID   = 66149
ELEMENT_SET_NO = 999
REV_AT_EPOCH   = 421
BSTAR          = .23998366E-2
MEAN_MOTION_DOT = .134781E-2
MEAN_MOTION_DDOT = 0

CCSDS_OMM_VERS = 2.0
CREATION_DATE  = 
ORIGINATOR     = 

OBJECT_NAME    = STARLINK-35605
OBJECT_ID      = 2025-240E
CENTER_NAME    = EARTH
REF_FRAME      = TEME
TIME_SYSTEM    = UTC
MEAN_ELEMENT_THEORY = SGP/SGP4

EPOCH          = 2025-11-13T14:00:01.999872
MEAN_MOTION    = 15.49188618
ECCENTRICITY   = .00008849
INCLINATION    = 53.1600
RA_OF_ASC_NODE = 244.2387
ARG_OF_PERICENTER = 73.0162
MEAN_ANOMALY   = 231.1305

EPHEMERIS_TYPE = 0
CLASSIFICATION_TYPE = U
NORAD_CAT_ID   = 66150
ELEMENT_SET_NO = 999
REV_AT_EPOCH   = 421
BSTAR          = .23827102E-2
MEAN_MOTION_DOT = .133792E-2
MEAN_MOTION_DDOT = 0

CCSDS_OMM_VERS = 2.0
CREATION_DATE  = 
ORIGINATOR     = 

OBJECT_NAME    = STARLINK-35540
OBJECT_ID      = 2025-240F
CENTER_NAME    = EARTH
REF_FRAME      = TEME
TIME_SYSTEM    = UTC
MEAN_ELEMENT_THEORY = SGP/SGP4

EPOCH          = 2025-11-13T14:00:01.999872
MEAN_MOTION    = 15.49168205
ECCENTRICITY   = .0000799
INCLINATION    = 53.1599
RA_OF_ASC_NODE = 244.2343
ARG_OF_PERICENTER = 81.8848
MEAN_ANOMALY   = 224.1926

EPHEMERIS_TYPE = 0
CLASSIFICATION_TYPE = U
NORAD_CAT_ID   = 66151
ELEMENT_SET_NO = 999
REV_AT_EPOCH   = 421
BSTAR          = .32137196E-2
MEAN_MOTION_DOT = .1816E-2
MEAN_MOTION_DDOT = 0

CCSDS_OMM_VERS = 2.0
CREATION_DATE  = 
ORIGINATOR     = 

OBJECT_NAME    = STARLINK-35455
OBJECT_ID      = 2025-240G
CENTER_NAME    = EARTH
REF_FRAME      = TEME
TIME_SYSTEM    = UTC
MEAN_ELEMENT_THEORY = SGP/SGP4

EPOCH          = 2025-11-13T14:00:01.999872
MEAN_MOTION    = 15.49250765
ECCENTRICITY   = .00013205
INCLINATION    = 53.1599
RA_OF_ASC_NODE = 244.2306
ARG_OF_PERICENTER = 82.5720
MEAN_ANOMALY   = 225.3996

EPHEMERIS_TYPE = 0
CLASSIFICATION_TYPE = U
NORAD_CAT_ID   = 66152
ELEMENT_SET_NO = 999
REV_AT_EPOCH   = 421
BSTAR          = .8234517E-3
MEAN_MOTION_DOT = .45522E-3
MEAN_MOTION_DDOT = 0

